KUZGTU 1 (RS47S)        
1 57217U 23091AV  26163.84790963  .00012886  00000+0  44832-3 0  9999
2 57217  97.5074 228.2835 0012379 111.4546 248.8015 15.29766027163711
SONATE-2                
1 59112U 24043Q   26162.93769449  .00035538  00000+0  46836-3 0  9992
2 59112  97.5519 313.0138 0006785 213.3126 146.7703 15.58325832127076
MESAT1                  
1 60209U 24125G   26163.88076169  .00058640  00000+0  64967-3 0  9991
2 60209  97.2292  21.2683 0009275 218.4533 141.6065 15.62750032108891
OOV-CUBE (TUBSAT-30)    
1 60240U 24128F   26162.59923854  .00001977  00000+0  15980-3 0  9990
2 60240  61.9950 245.0577 0045327 132.4986 227.9949 15.02751187105272
COLIBRI-S (RS67S)       
1 61746U 24199M   26163.79446779  .00023940  00000+0  46598-3 0  9992
2 61746  97.3005  37.6097 0006310 300.1601  59.9024 15.47550170136737
HORS 3 (RS81S)          
1 61753U 24199U   26163.84186259  .00035555  00000+0  53634-3 0  9994
2 61753  97.2991  39.5976 0003795 304.7764  55.3133 15.54681971136888
HORS 4 (RS82S)          
1 61754U 24199V   26163.81542580  .00050420  00000+0  63967-3 0  9993
2 61754  97.2937  40.7440 0002910 288.0184  72.0755 15.59287846136960
ARCTICSAT 1 (RS74S)     
1 61762U 24199AD  26163.74831264  .03081261  23921-5  12507-2 0  9990
2 61762  97.2825  47.8037 0009254 217.8157 142.2485 16.23353750137414
SIT-2086                
1 61764U 24199AF  26163.81482731  .00037836  00000+0  61069-3 0  9992
2 61764  97.2947  40.0617 0004327 274.9750  85.1009 15.52794387133755
HYPERVIEW 1G (RS66S)    
1 61772U 24199AP  26163.80658323  .00129978  00000+0  87653-3 0  9998
2 61772  97.2886  43.3086 0002784 241.6635 118.4350 15.74721372133982
ALTAIR (RS65S)          
1 61779U 24199AW  26163.81510648  .00010914  00000+0  30356-3 0  9990
2 61779  97.3041  33.1955 0011511 328.8529  31.2032 15.36949582136449
ASRTU-1 (AO-123)        
1 61781U 24199AY  26163.79918727  .00007874  00000+0  22915-3 0  9993
2 61781  97.3012  32.5101 0012690 331.4870  28.5678 15.35615276133254
SAMSAT-IONOSPHERE (RS7*)
1 61784U 24199BB  26163.81891499  .00048166  00000+0  65919-3 0  9995
2 61784  97.2960  39.6052 0005919 299.5419  60.5246 15.57256179136886
RTU MIREA 1 (RS51S)     
1 61785U 24199BC  26163.85289660  .00054148  00000+0  65217-3 0  9999
2 61785  97.2948  40.4499 0005422 291.3778  68.6900 15.60631042133798
TEVEL2-4                
1 63213U 25052D   26163.22634011  .00019646  00000+0  59033-3 0  9994
2 63213  97.3917  59.6110 0004731 112.7549 247.4195 15.34441293 69350
TEVEL2-5                
1 63214U 25052E   26163.18106670  .00020078  00000+0  60654-3 0  9997
2 63214  97.3921  59.5143 0004629 114.2395 245.9332 15.34269187 69348
TEVEL2-6                
1 63215U 25052F   26163.19328240  .00020179  00000+0  61028-3 0  9996
2 63215  97.3921  59.5115 0004505 113.2672 246.9046 15.34232330 69341
TEVEL2-1                
1 63217U 25052H   26162.95960718  .00016082  00000+0  49545-3 0  9991
2 63217  97.3891  58.9077 0004509 123.4340 236.7334 15.33693147 69295
TEVEL2-3                
1 63218U 25052J   26163.21540340  .00019135  00000+0  58756-3 0  9993
2 63218  97.3892  59.1848 0004498 123.1530 237.0145 15.33760310 69337
TEVEL2-2                
1 63219U 25052K   26162.95994952  .00016262  00000+0  50083-3 0  9999
2 63219  97.3890  58.9106 0004449 123.8478 236.3189 15.33701780 69295
TEVEL2-9                
1 63237U 25052AD  26163.19195162  .00017823  00000+0  58280-3 0  9993
2 63237  97.3947  58.5267 0007288 144.2630 215.9100 15.31748226 69260
TEVEL2-7                
1 63238U 25052AE  26162.64384617  .00015266  00000+0  50453-3 0  9991
2 63238  97.3956  57.8996 0007384 146.6025 213.5683 15.31438086 69173
TEVEL2-8                
1 63239U 25052AF  26163.17476619  .00016802  00000+0  55488-3 0  9995
2 63239  97.3951  58.4063 0007475 146.0802 214.0919 15.31439720 69252
INNOSAT 16 (RS92S7)     
1 64878U 25155C   26163.86941882  .00006029  00000+0  24122-3 0  9995
2 64878  97.4556 131.0109 0010029 190.5491 169.5538 15.25413299 80014
GEOSCAN 6 (RS92S6)      
1 64879U 25155D   26163.79998845  .00010680  00000+0  36915-3 0  9990
2 64879  97.4547 132.3350 0007764 176.9096 183.2194 15.30072530 80092
GEOSCAN 1 (RS92S1)      
1 64880U 25155E   26163.86950751  .00011795  00000+0  40000-3 0  9992
2 64880  97.4543 132.5488 0007730 176.2162 183.9139 15.30663597 80112
239ALFEROV (RS61S)      
1 64881U 25155F   26163.84528455  .00015107  00000+0  47817-3 0  9997
2 64881  97.4544 133.0712 0007445 172.9179 187.2169 15.32829387 80140
GEOSCAN 2 (RS92S2)      
1 64890U 25155Q   26163.86395591  .00011557  00000+0  38877-3 0  9993
2 64890  97.4542 132.6941 0007592 162.7355 197.4145 15.30934292 80128
GEOSCAN 5 (RS92S5)      
1 64891U 25155R   26163.83520926  .00014303  00000+0  44855-3 0  9998
2 64891  97.4537 133.1972 0006137 176.2166 183.9123 15.33146526 80154
GEOSCAN 4 (RS92S4)      
1 64892U 25155S   26163.81983536  .00014790  00000+0  46152-3 0  9999
2 64892  97.4540 133.2287 0006173 176.3238 183.8051 15.33298065 80155
