OBJECT_NAME,OBJECT_ID,EPOCH,MEAN_MOTION,ECCENTRICITY,INCLINATION,RA_OF_ASC_NODE,ARG_OF_PERICENTER,MEAN_ANOMALY,EPHEMERIS_TYPE,CLASSIFICATION_TYPE,NORAD_CAT_ID,ELEMENT_SET_NO,REV_AT_EPOCH,BSTAR,MEAN_MOTION_DOT,MEAN_MOTION_DDOT
KUZGTU 1 (RS47S),2023-091AV,2026-06-12T20:20:59.392032,15.29766027,.0012379,97.5074,228.2835,111.4546,248.8015,0,U,57217,999,16371,.44832E-3,.12886E-3,0
SONATE-2,2024-043Q,2026-06-11T22:30:16.803936,15.58325832,.0006785,97.5519,313.0138,213.3126,146.7703,0,U,59112,999,12707,.46836077E-3,.35538E-3,0
MESAT1,2024-125G,2026-06-12T21:08:17.810016,15.62750032,.0009275,97.2292,21.2683,218.4533,141.6065,0,U,60209,999,10889,.64967E-3,.5864E-3,0
OOV-CUBE (TUBSAT-30),2024-128F,2026-06-11T14:22:54.209856,15.02751187,.0045327,61.9950,245.0577,132.4986,227.9949,0,U,60240,999,10527,.1598E-3,.1977E-4,0
COLIBRI-S (RS67S),2024-199M,2026-06-12T19:04:02.017056,15.47550170,.000631,97.3005,37.6097,300.1601,59.9024,0,U,61746,999,13673,.46598E-3,.2394E-3,0
HORS 3 (RS81S),2024-199U,2026-06-12T20:12:16.927776,15.54681971,.0003795,97.2991,39.5976,304.7764,55.3133,0,U,61753,999,13688,.53634E-3,.35555E-3,0
HORS 4 (RS82S),2024-199V,2026-06-12T19:34:12.789120,15.59287846,.000291,97.2937,40.7440,288.0184,72.0755,0,U,61754,999,13696,.63967E-3,.5042E-3,0
ARCTICSAT 1 (RS74S),2024-199AD,2026-06-12T17:57:34.212096,16.23353750,.0009254,97.2825,47.8037,217.8157,142.2485,0,U,61762,999,13741,.12507E-2,.3081261E-1,.23921E-5
SIT-2086,2024-199AF,2026-06-12T19:33:21.079584,15.52794387,.0004327,97.2947,40.0617,274.9750,85.1009,0,U,61764,999,13375,.61069E-3,.37836E-3,0
HYPERVIEW 1G (RS66S),2024-199AP,2026-06-12T19:21:28.791072,15.74721372,.0002784,97.2886,43.3086,241.6635,118.4350,0,U,61772,999,13398,.87653E-3,.129978E-2,0
ALTAIR (RS65S),2024-199AW,2026-06-12T19:33:45.199872,15.36949582,.0011511,97.3041,33.1955,328.8529,31.2032,0,U,61779,999,13644,.30356E-3,.10914E-3,0
ASRTU-1 (AO-123),2024-199AY,2026-06-12T19:10:49.780128,15.35615276,.001269,97.3012,32.5101,331.4870,28.5678,0,U,61781,999,13325,.22915E-3,.7874E-4,0
SAMSAT-IONOSPHERE (RS75S),2024-199BB,2026-06-12T19:39:14.255136,15.57256179,.0005919,97.2960,39.6052,299.5419,60.5246,0,U,61784,999,13688,.65919E-3,.48166E-3,0
RTU MIREA 1 (RS51S),2024-199BC,2026-06-12T20:28:10.266240,15.60631042,.0005422,97.2948,40.4499,291.3778,68.6900,0,U,61785,999,13379,.65217E-3,.54148E-3,0
TEVEL2-4,2025-052D,2026-06-12T05:25:55.785504,15.34441293,.00047313,97.3917,59.6110,112.7549,247.4195,0,U,63213,999,6935,.59032813E-3,.19646E-3,0
TEVEL2-5,2025-052E,2026-06-12T04:20:44.162880,15.34269187,.00046298,97.3921,59.5143,114.2395,245.9332,0,U,63214,999,6934,.60653612E-3,.20078E-3,0
TEVEL2-6,2025-052F,2026-06-12T04:38:19.599360,15.34232330,.00045055,97.3921,59.5115,113.2672,246.9046,0,U,63215,999,6934,.61027656E-3,.20179E-3,0
TEVEL2-1,2025-052H,2026-06-11T23:01:50.060352,15.33693147,.00045093,97.3891,58.9077,123.4340,236.7334,0,U,63217,999,6929,.49545202E-3,.16082E-3,0
TEVEL2-3,2025-052J,2026-06-12T05:10:10.853760,15.33760310,.00044986,97.3892,59.1848,123.1530,237.0145,0,U,63218,999,6933,.58756477E-3,.19135E-3,0
TEVEL2-2,2025-052K,2026-06-11T23:02:19.638528,15.33701780,.00044495,97.3890,58.9106,123.8478,236.3189,0,U,63219,999,6929,.50082788E-3,.16262E-3,0
TEVEL2-9,2025-052AD,2026-06-12T04:36:24.619968,15.31748226,.00072884,97.3947,58.5267,144.2630,215.9100,0,U,63237,999,6926,.58279521E-3,.17823E-3,0
TEVEL2-7,2025-052AE,2026-06-11T15:27:08.309088,15.31438086,.0007384,97.3956,57.8996,146.6025,213.5683,0,U,63238,999,6917,.50452758E-3,.15266E-3,0
TEVEL2-8,2025-052AF,2026-06-12T04:11:39.798816,15.31439720,.00074755,97.3951,58.4063,146.0802,214.0919,0,U,63239,999,6925,.55488137E-3,.16802E-3,0
INNOSAT 16 (RS92S7),2025-155C,2026-06-12T20:51:57.786048,15.25413299,.0010029,97.4556,131.0109,190.5491,169.5538,0,U,64878,999,8001,.24122E-3,.6029E-4,0
GEOSCAN 6 (RS92S6),2025-155D,2026-06-12T19:11:59.002080,15.30072530,.0007764,97.4547,132.3350,176.9096,183.2194,0,U,64879,999,8009,.36915E-3,.1068E-3,0
GEOSCAN 1 (RS92S1),2025-155E,2026-06-12T20:52:05.448864,15.30663597,.000773,97.4543,132.5488,176.2162,183.9139,0,U,64880,999,8011,.4E-3,.11795E-3,0
239ALFEROV (RS61S),2025-155F,2026-06-12T20:17:12.585120,15.32829387,.0007445,97.4544,133.0712,172.9179,187.2169,0,U,64881,999,8014,.47817E-3,.15107E-3,0
GEOSCAN 2 (RS92S2),2025-155Q,2026-06-12T20:44:05.790624,15.30934292,.0007592,97.4542,132.6941,162.7355,197.4145,0,U,64890,999,8012,.38877E-3,.11557E-3,0
GEOSCAN 5 (RS92S5),2025-155R,2026-06-12T20:02:42.080064,15.33146526,.0006137,97.4537,133.1972,176.2166,183.9123,0,U,64891,999,8015,.44855E-3,.14303E-3,0
GEOSCAN 4 (RS92S4),2025-155S,2026-06-12T19:40:33.775104,15.33298065,.0006173,97.4540,133.2287,176.3238,183.8051,0,U,64892,999,8015,.46152E-3,.1479E-3,0
